C/2017 M4 (ATLAS),h,01/17.8895/2019,105.6243,66.0181,167.5169,1.000732,3.244098,2000,6.0,4.0
# From MPC114599
P/2017 P1 (PANSTARRS),e,7.6878,221.4615,122.8026,7.920274,0.0442175,0.30993995,94.2942,04/24.0/2024,2000,g 10.0,4.0
# From MPEC 2022-OB6
P/2017 S8 (PANSTARRS),e,29.8442,191.5318,254.8731,2.778783,0.2127757,0.39101066,124.8227,04/24.0/2024,2000,g 16.0,4.0
# From MPEC 2024-A43
C/2017 T2 (PANSTARRS),e,57.2916,64.4491,92.8295,1489,0.0000171,0.99891974,0.0000,05/05.2424/2020,2000,g  5.0,4.0
# From MPC115882
P/2017 TW13 (Lemmon),e,44.8685,322.2022,119.9341,7.135387,0.0517104,0.71070197,110.2466,04/24.0/2024,2000,g 15.0,2.0
# From MPEC 2022-K19
P/2017 U3 (PANSTARRS),e,15.9182,165.0831,296.2470,4.921666,0.0902684,0.10040512,165.8715,04/24.0/2024,2000,g 11.0,4.0
# From MPEC 2023-A50
C/2017 U7 (PANSTARRS),h,09/16.0450/2019,142.6320,276.3014,326.4632,1.002603,6.426725,2000,8.3,2.0
# From MPC114601
P/2017 W3 (Gibbs),e,18.1757,210.1392,327.7721,7.823502,0.0450404,0.50650909,101.2963,04/24.0/2024,2000,g 10.5,4.0
# From MPEC 2024-DC6
C/2017 Y2 (PANSTARRS),h,11/05.1174/2020,128.4486,66.0335,147.8980,1.001518,4.628468,2000,15.0,4.0
# From MPC111770
P/2017 Y3 (Leonard),e,27.5951,153.9290,67.4663,9.805154,0.0321013,0.86933337,72.8089,04/24.0/2024,2000,g 16.5,4.0
# From MPEC 2021-P47
C/2018 A3 (ATLAS),e,139.5637,194.3141,86.4083,345.6730,0.0001534,0.99049536,0.0000,01/09.4961/2019,2000,g  8.5,4.0
# From MPC109147
P/2018 A5 (PANSTARRS),e,23.6184,87.7833,359.5080,5.625725,0.0738646,0.52421725,177.3671,04/24.0/2024,2000,g 15.0,4.0
# From MPEC 2024-GJ3
C/2018 A6 (Gibbs),e,77.1046,340.4116,264.3131,15.01253,0.0169443,0.79892120,29.6432,04/24.0/2024,2000,g  9.0,4.0
# From MPC114601
P/2018 C1 (Lemmon-Read),e,5.1061,270.2737,235.7223,5.650908,0.0733714,0.53228708,165.2129,04/24.0/2024,2000,g 13.5,4.0
# From MPEC 2022-M88
C/2018 DO4 (Lemmon),e,160.4469,251.3907,176.3393,25.43810,0.0076820,0.90500544,13.1518,04/24.0/2024,2000,g 11.0,4.0
# From MPEC 2021-R75
C/2018 F1 (Grauer),e,46.1148,177.2905,71.5206,225.1261,0.0002918,0.98669133,0.0000,12/10.6755/2018,2000,g 11.5,4.0
# From MPEC 2023-A50
C/2018 F4 (PANSTARRS),e,78.0922,26.5184,263.2072,2417,0.0000083,0.99857398,0.0000,12/01.8627/2019,2000,g 11.0,6.0
# From MPEC 2021-Y10
C/2018 F4-A,e,78.0924,26.5185,263.2040,2330,0.0000088,0.99852102,0.0000,12/01.8508/2019,2000,g 11.0,6.0
# From MPEC 2023-D41
C/2018 F4-B,e,78.0933,26.5180,263.1897,2479,0.0000080,0.99860980,0.0000,12/01.7876/2019,2000,g 11.0,6.0
# From MPC114602
P/2018 H2 (PANSTARRS),e,7.4208,67.9756,119.4857,4.396814,0.1069047,0.54070473,246.8160,04/24.0/2024,2000,g 16.6,2.0
# From MPEC 2021-R75
C/2018 KJ3 (Lemmon),e,136.6369,91.6846,217.6007,819.4548,0.0000420,0.99558094,0.0000,09/09.6734/2019,2000,g 12.2,2.0
# From MPC114602
P/2018 L1 (PANSTARRS),e,10.5788,268.5917,17.9991,3.655954,0.1409948,0.48129843,280.9141,04/24.0/2024,2000,g 15.0,4.0
# From MPEC 2021-P47
C/2018 L2 (ATLAS),e,67.2027,242.9840,56.3491,246.0311,0.0002554,0.99301128,0.0000,11/30.9548/2018,2000,g 10.0,4.0
# From MPC114603
P/2018 L4 (PANSTARRS),e,26.5997,145.2124,140.5650,4.947358,0.0895662,0.65835804,187.7656,04/24.0/2024,2000,g 17.5,4.0
# From MPC119996
P/2018 L5 (Leonard),e,2.2089,219.0576,93.9255,3.629196,0.1425570,0.36384768,310.8300,04/24.0/2024,2000,g 14.5,4.0
# From MPEC 2022-YN2
C/2018 N2 (ASASSN),h,11/11.8365/2019,77.5448,24.4972,25.2744,1.001641,3.131842,2000,6.0,4.0
# From MPC114603
P/2018 P4 (PANSTARRS),e,23.0970,353.1448,8.4795,6.691523,0.0569399,0.44990850,113.4917,04/24.0/2024,2000,g 12.0,4.0
# From MPEC 2021-P47
C/2018 P5 (PANSTARRS),e,7.2458,216.2506,132.0238,12.85280,0.0213898,0.64239063,40.2656,04/24.0/2024,2000,g 11.0,4.0
# From MPC118841
C/2018 R3 (Lemmon),e,69.7102,324.5005,112.7250,1652,0.0000147,0.99922384,0.0000,06/08.0624/2019,2000,g  9.5,4.0
# From MPC114603
C/2018 R5 (Lemmon),e,103.7254,171.2087,178.2492,22.96561,0.0089554,0.84159903,17.2880,04/24.0/2024,2000,g 11.5,4.0
# From MPEC 2022-QC6
C/2018 S2 (TESS),e,64.1191,85.1163,290.8717,14.36948,0.0180943,0.61853507,36.1057,04/24.0/2024,2000,g  7.5,4.0
# From MPEC 2023-N01
C/2018 U1 (Lemmon),h,11/02.7815/2021,108.3250,75.5109,180.4317,1.001027,4.990525,2000,5.0,4.0
# From MPC114604
C/2018 V1 (Machholz-Fujikawa-Iwamoto),h,12/03.2153/2018,144.1555,129.3572,89.3902,1.000415,0.391848,2000,12.0,4.0
# From MPC115884
C/2018 V2 (ATLAS),e,159.1662,357.1323,319.1662,25.16721,0.0078064,0.90101023,15.4297,04/24.0/2024,2000,g 15.0,4.0
# From MPEC 2023-CD7
P/2018 VN2 (Leonard),e,18.2605,226.4410,138.9216,4.061658,0.1204062,0.47846862,258.4332,04/24.0/2024,2000,g 15.0,4.0
# From MPEC 2022-VC5
A/2018 V3,e,164.9377,308.7665,3.6116,128.4773,0.0006768,0.98960130,0.0000,09/09.9913/2019,2000,g 15.7,2.0
# From MPEC 2022-M21
C/2018 V4 (Africano),e,69.0367,78.2562,0.0058,209.1821,0.0003258,0.98471611,0.0000,03/02.1313/2019,2000,g 12.5,4.0
# From MPEC 2021-P47
P/2018 V5 (Trujillo-Sheppard),e,10.5852,171.3202,260.7324,8.971059,0.0366808,0.47594390,74.3765,04/24.0/2024,2000,g 12.5,4.0
# From MPEC 2021-P47
C/2018 W1 (Catalina),e,83.4237,233.6582,251.1979,21.71362,0.0097410,0.93757418,17.6142,04/24.0/2024,2000,g 15.5,2.0
# From MPEC 2021-P47
C/2018 W2 (Africano),h,09/05.3709/2019,116.5962,181.8772,158.1725,1.000815,1.464876,2000,9.5,4.0
# From MPEC 2023-M14
A/2018 W3,e,104.8374,251.6880,313.9336,717.7033,0.0000513,0.99402570,0.0000,04/13.0993/2021,2000,g 10.7,2.0
# From MPC119996
C/2018 X2 (Fitzsimmons),e,23.0865,340.7313,161.9453,139.2034,0.0006001,0.98480861,0.0000,07/08.8646/2019,2000,g 12.0,4.0
# From MPC114604
C/2018 X3 (PANSTARRS),e,43.4198,78.8039,359.7921,12.39256,0.0225924,0.78288340,43.8271,04/24.0/2024,2000,g 14.5,4.0
# From MPEC 2024-A43
C/2018 Y1 (Iwamoto),e,160.4438,147.4130,357.8672,127.1025,0.0006878,0.98987369,0.0000,02/04.6021/2019,2000,g 11.5,4.0
# From MPC114605
P/2018 Y2 (Africano),e,11.6898,297.1516,162.2937,7.453997,0.0484306,0.47981807,93.8500,04/24.0/2024,2000,g 11.5,4.0
# From MPC114605
P/2019 A1 (PANSTARRS),e,13.7610,312.2338,150.7320,5.114016,0.0852238,0.56988359,172.1833,04/24.0/2024,2000,g 16.0,4.0
# From MPEC 2021-P47
P/2019 A2 (ATLAS),e,14.8661,139.3984,323.8814,5.711471,0.0722075,0.38288520,142.9600,04/24.0/2024,2000,g 10.5,4.0
# From MPEC 2022-M21
P/2019 A3 (PANSTARRS),e,15.3744,31.3564,325.6561,3.144432,0.1767627,0.26626301,9.2471,04/24.0/2024,2000,g 16.0,4.0
# From MPEC 2022-L66
P/2019 A4 (PANSTARRS),e,13.3043,119.3629,343.0854,2.614392,0.2331568,0.08731836,97.2249,04/24.0/2024,2000,g 15.0,4.0
# From MPEC 2021-P47
C/2019 A5 (PANSTARRS),e,67.5480,146.5636,355.7749,21.47781,0.0099019,0.70615300,17.6608,04/24.0/2024,2000,g  9.5,4.0
# From MPC114605
P/2019 A6 (Lemmon-PANSTARRS),e,33.2810,280.1881,156.2068,5.356837,0.0794953,0.64035420,163.9519,04/24.0/2024,2000,g 16.0,4.0
# From MPC115884
P/2019 A8 (PANSTARRS),e,2.2106,114.4214,63.9378,4.336391,0.1091469,0.22745580,236.4333,04/24.0/2024,2000,g 16.0,4.0
# From MPC118842
C/2019 A9 (PANSTARRS),e,84.3452,278.4452,237.9021,39.17902,0.0040191,0.96351656,6.9680,04/24.0/2024,2000,g 15.0,4.0
# From MPEC 2022-L66
C/2019 B1 (Africano),e,123.4430,290.2851,174.7784,138.2143,0.0006066,0.98843808,0.0000,03/18.6032/2019,2000,g 16.0,4.0
# From MPC115885
P/2019 B2 (Groeller),e,16.9730,175.7195,0.7927,3.922171,0.1268862,0.35823990,228.4151,04/24.0/2024,2000,g 14.5,4.0
# From MPEC 2024-A43
C/2019 B3 (PANSTARRS),e,66.5580,358.4200,263.9750,5674,0.0000023,0.99879675,0.0000,01/19.9506/2021,2000,g  5.5,4.0
# From MPEC 2021-P47
C/2019 C1 (ATLAS),e,36.0503,212.3906,319.0223,650.5328,0.0000594,0.98989867,0.0000,05/04.0807/2020,2000,g 10.0,4.0
# From MPEC 2022-O08
C/2019 D1 (Flewelling),e,33.9945,231.6453,70.7322,139.9375,0.0005954,0.98863880,0.0000,05/10.1607/2019,2000,g 13.0,4.0
# From MPEC 2024-GJ3
C/2019 E3 (ATLAS),e,84.3011,347.2240,280.7058,6300,0.0000020,0.99836291,0.0000,11/15.3977/2023,2000,g  2.5,4.0
# From MPEC 2024-GJ3
C/2019 F1 (ATLAS-Africano),h,06/22.0856/2021,54.2346,38.6639,251.3406,1.001379,3.608057,2000,5.5,4.0
# From MPEC 2021-P47
C/2019 F2 (ATLAS),e,19.3056,175.3908,11.6376,16.58146,0.0145972,0.86463721,24.6785,04/24.0/2024,2000,g 12.0,4.0
# From MPEC 2024-E01
C/2019 G2 (PANSTARRS),e,159.2258,208.1809,82.6551,407.7729,0.0001197,0.99436369,0.0000,12/07.5230/2019,2000,g 15.0,4.0
# From MPEC 2022-VC5
A/2019 G3,e,156.8036,49.9146,161.8368,17.16639,0.0138575,0.83448688,27.2641,04/24.0/2024,2000,g 17.1,2.0
# From MPC114607
P/2019 GG21 (PANSTARRS),e,6.0866,340.5607,208.5857,7.468129,0.0482932,0.47173982,87.4704,04/24.0/2024,2000,g 12.0,4.0
# From MPEC 2022-M21
C/2019 H1 (NEOWISE),e,104.3901,269.2994,19.2984,239.1138,0.0002666,0.99229430,0.0000,04/27.6915/2019,2000,g 15.5,4.0
# From MPEC 2023-A50
C/2019 J1 (Lemmon),e,24.5301,98.2057,167.6704,67.42332,0.0017803,0.96313647,3.2833,04/24.0/2024,2000,g 12.0,4.0
# From MPEC 2021-R75
C/2019 J2 (Palomar),e,105.2536,25.5380,98.6334,160.8872,0.0004830,0.98931304,0.0000,07/20.6056/2019,2000,g 13.0,4.0
# From MPC117071
C/2019 J3 (ATLAS),h,08/02.4492/2019,131.3146,270.6390,16.5621,1.000368,2.366384,2000,13.5,4.0
# From MPEC 2022-M21
C/2019 JU6 (ATLAS),h,06/02.5336/2019,148.3255,21.7523,94.9193,1.000059,2.038728,2000,14.5,4.0
# From MPEC 2022-O08
C/2019 K1 (ATLAS),e,87.0211,73.3136,265.7453,4812,0.0000030,0.99958089,0.0000,02/12.0501/2020,2000,g 10.0,4.0
# From MPC119997
C/2019 K4 (Ye),e,105.2960,180.1985,139.9610,1507,0.0000169,0.99849103,0.0000,06/15.3202/2019,2000,g 12.5,4.0
# From MPEC 2021-P47
C/2019 K5 (Young),e,15.3101,177.2057,175.1470,169.7563,0.0004456,0.98793366,0.0000,06/22.5017/2019,2000,g 13.0,4.0
# From MPEC 2021-P47
C/2019 K6 (PANSTARRS),e,132.3798,43.0014,187.5151,1188,0.0000241,0.99669919,0.0000,05/19.4985/2020,2000,g 11.5,4.0
# From MPEC 2024-GJ3
C/2019 K7 (Smith),h,06/17.6066/2020,103.5088,308.0009,27.4033,1.000913,4.477647,2000,6.0,4.0
# From MPEC 2021-R75
C/2019 K8 (ATLAS),e,93.0936,291.0146,85.3611,2107,0.0000102,0.99848340,0.0000,07/21.2613/2019,2000,g 11.5,4.0
# From MPEC 2023-A50
